$$SOE
2461302.500000000, A.D. 2026-Sep-19 00:00:00.0000, -3.859932899938180E+08, -3.780594324484491E+08, 1.563032165244579E+06,
2461309.500000000, A.D. 2026-Sep-26 00:00:00.0000, -3.790801658437384E+08, -3.834932812388503E+08, 1.476079231442362E+06,
2461316.500000000, A.D. 2026-Oct-03 00:00:00.0000, -3.720496567113286E+08, -3.888084034151110E+08, 1.388669678667039E+06,
2461323.500000000, A.D. 2026-Oct-10 00:00:00.0000, -3.649032377880011E+08, -3.940024216689416E+08, 1.300827993882984E+06,
2461330.500000000, A.D. 2026-Oct-17 00:00:00.0000, -3.576424250410526E+08, -3.990729532709821E+08, 1.212579028298914E+06,
2461337.500000000, A.D. 2026-Oct-24 00:00:00.0000, -3.502687764217596E+08, -4.040176102634658E+08, 1.123948004408449E+06,
2461344.500000000, A.D. 2026-Oct-31 00:00:00.0000, -3.427838930191328E+08, -4.088339998520086E+08, 1.034960501118422E+06,
2461351.500000000, A.D. 2026-Nov-07 00:00:00.0000, -3.351894198206400E+08, -4.135197249243972E+08, 9.456423920956850E+05,
2461358.500000000, A.D. 2026-Nov-14 00:00:00.0000, -3.274870458792703E+08, -4.180723838108894E+08, 8.560197916440368E+05,
2461365.500000000, A.D. 2026-Nov-21 00:00:00.0000, -3.196785056985859E+08, -4.224895686059681E+08, 7.661192302348316E+05,
2461372.500000000, A.D. 2026-Nov-28 00:00:00.0000, -3.117655828334308E+08, -4.267688650618588E+08, 6.759679056004584E+05,
2461379.500000000, A.D. 2026-Dec-05 00:00:00.0000, -3.037501120868549E+08, -4.309078547133305E+08, 5.855936239987910E+05,
2461386.500000000, A.D. 2026-Dec-12 00:00:00.0000, -2.956339801389540E+08, -4.349041161258606E+08, 4.950246710740626E+05,
2461393.500000000, A.D. 2026-Dec-19 00:00:00.0000, -2.874191264950709E+08, -4.387552252631229E+08, 4.042897862395048E+05,
2461400.500000000, A.D. 2026-Dec-26 00:00:00.0000, -2.791075448954442E+08, -4.424587558442268E+08, 3.134181829250753E+05,
2461407.500000000, A.D. 2027-Jan-02 00:00:00.0000, -2.707012849100860E+08, -4.460122798844875E+08, 2.224395739162862E+05,
2461414.500000000, A.D. 2027-Jan-09 00:00:00.0000, -2.622024536018929E+08, -4.494133684030135E+08, 1.313841927625537E+05,
2461421.500000000, A.D. 2027-Jan-16 00:00:00.0000, -2.536132172231746E+08, -4.526595922921706E+08, 4.028280876103044E+04,
2461428.500000000, A.D. 2027-Jan-23 00:00:00.0000, -2.449358029005702E+08, -4.557485233925604E+08, -5.083327194046974E+04,
2461435.500000000, A.D. 2027-Jan-30 00:00:00.0000, -2.361725001217095E+08, -4.586777358253503E+08, -1.419322402842343E+05,
2461442.500000000, A.D. 2027-Feb-06 00:00:00.0000, -2.273256615998895E+08, -4.614448072460226E+08, -2.329818645461500E+05,
2461449.500000000, A.D. 2027-Feb-13 00:00:00.0000, -2.183977039778550E+08, -4.640473188038187E+08, -3.239494751139283E+05,
2461456.500000000, A.D. 2027-Feb-20 00:00:00.0000, -2.093911107346320E+08, -4.664828546014780E+08, -4.148017018406689E+05,
2461463.500000000, A.D. 2027-Feb-27 00:00:00.0000, -2.003084358987952E+08, -4.687490038729061E+08, -5.055043549008965E+05,
2461470.500000000, A.D. 2027-Mar-06 00:00:00.0000, -1.911523055493070E+08, -4.708433639607237E+08, -5.960225690626502E+05,
2461477.500000000, A.D. 2027-Mar-13 00:00:00.0000, -1.819254187030001E+08, -4.727635420480993E+08, -6.863208972566426E+05,
2461484.500000000, A.D. 2027-Mar-20 00:00:00.0000, -1.726305487157256E+08, -4.745071564827413E+08, -7.763633182280064E+05,
2461491.500000000, A.D. 2027-Mar-27 00:00:00.0000, -1.632705449916528E+08, -4.760718382456936E+08, -8.661132218800783E+05,
2461498.500000000, A.D. 2027-Apr-03 00:00:00.0000, -1.538483347938176E+08, -4.774552326175249E+08, -9.555333950833380E+05,
2461505.500000000, A.D. 2027-Apr-10 00:00:00.0000, -1.443669250908211E+08, -4.786550010248702E+08, -1.044586011925042E+06,
2461512.500000000, A.D. 2027-Apr-17 00:00:00.0000, -1.348294044142210E+08, -4.796688230882531E+08, -1.133232631751537E+06,
2461519.500000000, A.D. 2027-Apr-24 00:00:00.0000, -1.252389446442839E+08, -4.804943989398161E+08, -1.221434217408687E+06,
2461526.500000000, A.D. 2027-May-01 00:00:00.0000, -1.155988024210915E+08, -4.811294517890736E+08, -1.309151198883921E+06,
2461533.500000000, A.D. 2027-May-08 00:00:00.0000, -1.059123198696612E+08, -4.815717299937515E+08, -1.396343549361467E+06,
2461540.500000000, A.D. 2027-May-15 00:00:00.0000, -9.618292613126200E+07, -4.818190076871205E+08, -1.482970658481181E+06,
2461547.500000000, A.D. 2027-May-22 00:00:00.0000, -8.641414125896253E+07, -4.818690865577899E+08, -1.568991071242034E+06,
2461554.500000000, A.D. 2027-May-29 00:00:00.0000, -7.660957911475411E+07, -4.817198002554122E+08, -1.654362520432532E+06,
2461561.500000000, A.D. 2027-Jun-05 00:00:00.0000, -6.677294837669711E+07, -4.813690182966336E+08, -1.739042077799410E+06,
2461568.500000000, A.D. 2027-Jun-12 00:00:00.0000, -5.690805365671444E+07, -4.808146490449868E+08, -1.822986204467595E+06,
2461575.500000000, A.D. 2027-Jun-19 00:00:00.0000, -4.701879705234175E+07, -4.800546427044718E+08, -1.906150746571422E+06,
2461582.500000000, A.D. 2027-Jun-26 00:00:00.0000, -3.710917984434396E+07, -4.790869945925314E+08, -1.988490922981977E+06,
2461589.500000000, A.D. 2027-Jul-03 00:00:00.0000, -2.718330419835026E+07, -4.779097486884070E+08, -2.069961316482902E+06,
2461596.500000000, A.D. 2027-Jul-10 00:00:00.0000, -1.724537482287699E+07, -4.765210014526561E+08, -2.150515870989144E+06,
2461603.500000000, A.D. 2027-Jul-17 00:00:00.0000, -7.299700535806924E+06, -4.749189059617382E+08, -2.230107901226759E+06,
2461610.500000000, A.D. 2027-Jul-24 00:00:00.0000, 2.649304429066665E+06, -4.731016764258791E+08, -2.308690134226650E+06,
2461617.500000000, A.D. 2027-Jul-31 00:00:00.0000, 1.259711979908205E+07, -4.710675928599288E+08, -2.386214800974488E+06,
2461624.500000000, A.D. 2027-Aug-07 00:00:00.0000, 2.253911913520871E+07, -4.688150047599533E+08, -2.462633665582150E+06,
2461631.500000000, A.D. 2027-Aug-14 00:00:00.0000, 3.247056791218996E+07, -4.663423340417976E+08, -2.537897801644951E+06,
2461638.500000000, A.D. 2027-Aug-21 00:00:00.0000, 4.238662043936203E+07, -4.636480806073239E+08, -2.611957447616339E+06,
2461645.500000000, A.D. 2027-Aug-28 00:00:00.0000, 5.228231906951622E+07, -4.607308293370016E+08, -2.684762157810479E+06,
2461652.500000000, A.D. 2027-Sep-04 00:00:00.0000, 6.215259453142206E+07, -4.575892560085567E+08, -2.756260936456800E+06,
2461659.500000000, A.D. 2027-Sep-11 00:00:00.0000, 7.199226600801508E+07, -4.542221328036466E+08, -2.826402281181782E+06,
2461666.500000000, A.D. 2027-Sep-18 00:00:00.0000, 8.179604111168571E+07, -4.506283340519237E+08, -2.895134201641053E+06,
2461673.500000000, A.D. 2027-Sep-25 00:00:00.0000, 9.155851600469680E+07, -4.468068422879487E+08, -2.962404241047591E+06,
2461680.500000000, A.D. 2027-Oct-02 00:00:00.0000, 1.012741757598750E+08, -4.427567545897318E+08, -3.028159505679369E+06,
2461687.500000000, A.D. 2027-Oct-09 00:00:00.0000, 1.109373950053095E+08, -4.384772891982613E+08, -3.092346705275774E+06,
2461694.500000000, A.D. 2027-Oct-16 00:00:00.0000, 1.205424389387565E+08, -4.339677924667428E+08, -3.154912215048730E+06,
2461701.500000000, A.D. 2027-Oct-23 00:00:00.0000, 1.300834649949151E+08, -4.292277461384622E+08, -3.215802183927089E+06,
2461708.500000000, A.D. 2027-Oct-30 00:00:00.0000, 1.395545255635256E+08, -4.242567743351670E+08, -3.274962673693776E+06,
2461715.500000000, A.D. 2027-Nov-06 00:00:00.0000, 1.489495706174320E+08, -4.190546491178017E+08, -3.332339630209714E+06,
2461722.500000000, A.D. 2027-Nov-13 00:00:00.0000, 1.582624482871764E+08, -4.136212966816893E+08, -3.387878674462169E+06,
2461729.500000000, A.D. 2027-Nov-20 00:00:00.0000, 1.674869063068973E+08, -4.079568063538377E+08, -3.441525158480674E+06,
2461736.500000000, A.D. 2027-Nov-27 00:00:00.0000, 1.766165959736511E+08, -4.020614394079271E+08, -3.493224392428577E+06,
2461743.500000000, A.D. 2027-Dec-04 00:00:00.0000, 1.856450766220663E+08, -3.959356367616547E+08, -3.542921782769620E+06,
2461750.500000000, A.D. 2027-Dec-11 00:00:00.0000, 1.945658200897544E+08, -3.895800264974269E+08, -3.590562909941554E+06,
2461757.500000000, A.D. 2027-Dec-18 00:00:00.0000, 2.033722154741067E+08, -3.829954315213721E+08, -3.636093598513633E+06,
2461764.500000000, A.D. 2027-Dec-25 00:00:00.0000, 2.120575743564793E+08, -3.761828773368911E+08, -3.679459993857980E+06,
2461771.500000000, A.D. 2028-Jan-01 00:00:00.0000, 2.206151365569343E+08, -3.691435998888978E+08, -3.720608647796452E+06,
$$EOE